[{"OBJECT_NAME":"SCS-01 M","OBJECT_ID":"2025-100M","EPOCH":"2026-03-09T23:50:15.541152","MEAN_MOTION":15.31880861,"ECCENTRICITY":0.00078021,"INCLINATION":97.3725,"RA_OF_ASC_NODE":145.6908,"ARG_OF_PERICENTER":292.3826,"MEAN_ANOMALY":67.6588,"EPHEMERIS_TYPE":0,"CLASSIFICATION_TYPE":"U","NORAD_CAT_ID":63993,"ELEMENT_SET_NO":999,"REV_AT_EPOCH":4565,"BSTAR":0.0012010051,"MEAN_MOTION_DOT":0.00037061,"MEAN_MOTION_DDOT":0},{"OBJECT_NAME":"STARLINK-34390","OBJECT_ID":"2025-139C","EPOCH":"2026-03-09T12:50:16.484928","MEAN_MOTION":15.30148233,"ECCENTRICITY":7.255e-5,"INCLINATION":53.1583,"RA_OF_ASC_NODE":127.53,"ARG_OF_PERICENTER":82.6077,"MEAN_ANOMALY":277.5007,"EPHEMERIS_TYPE":0,"CLASSIFICATION_TYPE":"U","NORAD_CAT_ID":64666,"ELEMENT_SET_NO":999,"REV_AT_EPOCH":4032,"BSTAR":0.00085698892,"MEAN_MOTION_DOT":0.00025068,"MEAN_MOTION_DDOT":0}]
